OSIRIS-3U               
1 43027U 98067NL  17334.24784402  .00020089  00000-0  29562-3 0  9991
2 43027  51.6404 290.4182 0004648 114.6008 245.5468 15.55421177  1379
